ORBCOMM FM33 [-]        
1 25983U 99065D   24093.68321782  .00001425  00000+0  51865-3 0  9990
2 25983  45.0289 289.1163 0008184   7.5915 112.2523 14.37486373272626
ORBCOMM FM36 [-]        
1 25984U 99065E   24093.57411101  .00001345  00000+0  51358-3 0  9992
2 25984  45.0410  14.4810 0003589 263.1857  96.8582 14.35361069271050
ORBCOMM FM35 [+]        
1 25985U 99065F   24093.74464229  .00001323  00000+0  50985-3 0  9992
2 25985  45.0419  16.2082 0004219 347.8352  12.2393 14.34980525271473
ORBCOMM FM34 [-]        
1 25986U 99065G   24093.57489111  .00001418  00000+0  54307-3 0  9998
2 25986  45.0412  17.5349 0004590 304.0668  55.9743 14.34940895271608
ORBCOMM FM38 [-]        
1 33060U 08031A   24093.82691637  .00002587  00000+0  39006-3 0  9996
2 33060  48.4395 247.2392 0005826 306.2528  53.7847 14.77236355849551
ORBCOMM FM41 [-]        
1 33061U 08031B   24093.82471318  .00002516  00000+0  38251-3 0  9992
2 33061  48.4431 253.7819 0005099 292.4588 209.6055 14.76969766849059
ORBCOMM FM29 [-]        
1 33062U 08031C   24093.88099351  .00002413  00000+0  36875-3 0  9998
2 33062  48.4386 261.5480 0006896 292.5769 220.5836 14.76888469849361
ORBCOMM FM39 [-]        
1 33063U 08031D   24093.92811262  .00002004  00000+0  31802-3 0  9998
2 33063  48.4401 281.5641 0007882 270.2302  89.7708 14.75930967848680
